FENGYUN 1C DEB          
1 30004U 99025MD  17345.84388962  .00000276  00000-0  18152-3 0  9995
2 30004  99.0291  79.9876 0041165 268.4630 212.1313 14.09858618560623
